start=new Date('2023-02-11T00:00:00.000Z').valueOf();
sats=[{"OBJECT_TYPE":"PAYLOAD","GP_ID":"225069997","RCS_SIZE":"LARGE","MEAN_ANOMALY":"288.4801","PERIOD":"95.592","SITE":"AFETR","INCLINATION":"53.0524","COUNTRY_CODE":"US","REV_AT_EPOCH":"10761","CENTER_NAME":"EARTH","MEAN_MOTION":"15.06406665","EPOCH":"2023-02-10T16:48:13.321152","DECAY_DATE":null,"EPHEMERIS_TYPE":"0","OBJECT_ID":"2021-018P","LAUNCH_DATE":"2021-03-11","APOAPSIS":"548.276","PERIAPSIS":"546.110","BSTAR":"-0.00002923100000","SEMIMAJOR_AXIS":"6925.328","OBJECT_NAME":"STARLINK-2381","CLASSIFICATION_TYPE":"U","RA_OF_ASC_NODE":"232.9095","ARG_OF_PERICENTER":"71.6358","REF_FRAME":"TEME","FILE":"3785071","NORAD_CAT_ID":"47800","TIME_SYSTEM":"UTC","TLE_LINE2":"2 47800  53.0524 232.9095 0001564  71.6358 288.4801 15.06406665107611","ELEMENT_SET_NO":"999","MEAN_MOTION_DDOT":"0.0000000000000","MEAN_ELEMENT_THEORY":"SGP4","TLE_LINE1":"1 47800U 21018P   23041.70015418 -.00000717  00000-0 -29231-4 0  9995","MEAN_MOTION_DOT":"-0.00000717","ECCENTRICITY":"0.00015640"},{"OBJECT_ID":"2021-018Q","EPHEMERIS_TYPE":"0","MEAN_MOTION":"15.06401665","EPOCH":"2023-02-09T20:55:59.083968","DECAY_DATE":null,"SEMIMAJOR_AXIS":"6925.343","BSTAR":"0.00019531000000","OBJECT_NAME":"STARLINK-2382","CLASSIFICATION_TYPE":"U","LAUNCH_DATE":"2021-03-11","APOAPSIS":"547.989","PERIAPSIS":"546.428","MEAN_ANOMALY":"266.1254","RCS_SIZE":"LARGE","PERIOD":"95.592","INCLINATION":"53.0505","SITE":"AFETR","GP_ID":"224999180","OBJECT_TYPE":"PAYLOAD","CENTER_NAME":"EARTH","REV_AT_EPOCH":"10742","COUNTRY_CODE":"US","MEAN_MOTION_DOT":"0.00002629","MEAN_ELEMENT_THEORY":"SGP4","TLE_LINE1":"1 47801U 21018Q   23040.87221162  .00002629  00000-0  19531-3 0  9991","ECCENTRICITY":"0.00011270","NORAD_CAT_ID":"47801","TIME_SYSTEM":"UTC","FILE":"3784184","REF_FRAME":"TEME","ARG_OF_PERICENTER":"93.9864","RA_OF_ASC_NODE":"241.7185","TLE_LINE2":"2 47801  53.0505 241.7185 0001127  93.9864 266.1254 15.06401665107422","MEAN_MOTION_DDOT":"0.0000000000000","ELEMENT_SET_NO":"999"},{"OBJECT_ID":"2021-018R","EPHEMERIS_TYPE":"0","DECAY_DATE":null,"EPOCH":"2023-02-10T17:08:47.863104","MEAN_MOTION":"15.06398630","OBJECT_NAME":"STARLINK-2383","CLASSIFICATION_TYPE":"U","BSTAR":"0.00039974000000","SEMIMAJOR_AXIS":"6925.353","PERIAPSIS":"546.344","APOAPSIS":"548.091","LAUNCH_DATE":"2021-03-11","INCLINATION":"53.0512","SITE":"AFETR","PERIOD":"95.592","RCS_SIZE":"LARGE","MEAN_ANOMALY":"293.4437","GP_ID":"225068999","OBJECT_TYPE":"PAYLOAD","CENTER_NAME":"EARTH","COUNTRY_CODE":"US","REV_AT_EPOCH":"10727","MEAN_MOTION_DOT":"0.00005677","MEAN_ELEMENT_THEORY":"SGP4","TLE_LINE1":"1 47802U 21018R   23041.71444286  .00005677  00000-0  39974-3 0  9999","ECCENTRICITY":"0.00012610","TIME_SYSTEM":"UTC","NORAD_CAT_ID":"47802","REF_FRAME":"TEME","FILE":"3785071","ARG_OF_PERICENTER":"66.6684","RA_OF_ASC_NODE":"257.8534","MEAN_MOTION_DDOT":"0.0000000000000","ELEMENT_SET_NO":"999","TLE_LINE2":"2 47802  53.0512 257.8534 0001261  66.6684 293.4437 15.06398630107279"},{"OBJECT_ID":"2021-018S","EPHEMERIS_TYPE":"0","EPOCH":"2023-02-10T20:15:13.398048","MEAN_MOTION":"15.06404532","DECAY_DATE":null,"BSTAR":"0.00019949000000","SEMIMAJOR_AXIS":"6925.335","OBJECT_NAME":"STARLINK-2384","CLASSIFICATION_TYPE":"U","LAUNCH_DATE":"2021-03-11","APOAPSIS":"548.080","PERIAPSIS":"546.319","RCS_SIZE":"LARGE","PERIOD":"95.592","MEAN_ANOMALY":"269.4849","INCLINATION":"53.0507","SITE":"AFETR","GP_ID":"225070250","OBJECT_TYPE":"PAYLOAD","CENTER_NAME":"EARTH","COUNTRY_CODE":"US","REV_AT_EPOCH":"10763","MEAN_MOTION_DOT":"0.00002692","TLE_LINE1":"1 47803U 21018S   23041.84390507  .00002692  00000-0  19949-3 0  9994","MEAN_ELEMENT_THEORY":"SGP4","ECCENTRICITY":"0.00012710","NORAD_CAT_ID":"47803","TIME_SYSTEM":"UTC","FILE":"3785071","REF_FRAME":"TEME","ARG_OF_PERICENTER":"90.6285","RA_OF_ASC_NODE":"232.2728","TLE_LINE2":"2 47803  53.0507 232.2728 0001271  90.6285 269.4849 15.06404532107630","ELEMENT_SET_NO":"999","MEAN_MOTION_DDOT":"0.0000000000000"},{"REV_AT_EPOCH":"10754","COUNTRY_CODE":"US","CENTER_NAME":"EARTH","OBJECT_TYPE":"PAYLOAD","GP_ID":"225070497","MEAN_ANOMALY":"274.3168","RCS_SIZE":"LARGE","PERIOD":"95.592","SITE":"AFETR","INCLINATION":"53.0524","LAUNCH_DATE":"2021-03-11","APOAPSIS":"547.992","PERIAPSIS":"546.447","SEMIMAJOR_AXIS":"6925.354","BSTAR":"0.00011681000000","CLASSIFICATION_TYPE":"U","OBJECT_NAME":"STARLINK-2385","EPOCH":"2023-02-10T06:16:36.194592","MEAN_MOTION":"15.06398112","DECAY_DATE":null,"EPHEMERIS_TYPE":"0","OBJECT_ID":"2021-018T","TLE_LINE2":"2 47804  53.0524 234.8857 0001115  85.7948 274.3168 15.06398112107544","MEAN_MOTION_DDOT":"0.0000000000000","ELEMENT_SET_NO":"999","RA_OF_ASC_NODE":"234.8857","ARG_OF_PERICENTER":"85.7948","FILE":"3785071","REF_FRAME":"TEME","NORAD_CAT_ID":"47804","TIME_SYSTEM":"UTC","ECCENTRICITY":"0.00011150","TLE_LINE1":"1 47804U 21018T   23041.26153003  .00001459  00000-0  11681-3 0  9994","MEAN_ELEMENT_THEORY":"SGP4","MEAN_MOTION_DOT":"0.00001459"},{"ECCENTRICITY":"0.00009420","TLE_LINE1":"1 47805U 21018U   23041.82550583  .00002682  00000-0  19883-3 0  9992","MEAN_ELEMENT_THEORY":"SGP4","MEAN_MOTION_DOT":"0.00002682","ELEMENT_SET_NO":"999","MEAN_MOTION_DDOT":"0.0000000000000","TLE_LINE2":"2 47805  53.0508 232.5964 0000942  74.6598 285.4495 15.06402144107633","ARG_OF_PERICENTER":"74.6598","RA_OF_ASC_NODE":"232.5964","NORAD_CAT_ID":"47805","TIME_SYSTEM":"UTC","REF_FRAME":"TEME","FILE":"3785071","PERIAPSIS":"546.555","APOAPSIS":"547.859","LAUNCH_DATE":"2021-03-11","CLASSIFICATION_TYPE":"U","OBJECT_NAME":"STARLINK-2386","BSTAR":"0.00019883000000","SEMIMAJOR_AXIS":"6925.342","DECAY_DATE":null,"EPOCH":"2023-02-10T19:48:43.703712","MEAN_MOTION":"15.06402144","OBJECT_ID":"2021-018U","EPHEMERIS_TYPE":"0","CENTER_NAME":"EARTH","COUNTRY_CODE":"US","REV_AT_EPOCH":"10763","GP_ID":"225068749","OBJECT_TYPE":"PAYLOAD","INCLINATION":"53.0508","SITE":"AFETR","PERIOD":"95.592","RCS_SIZE":"LARGE","MEAN_ANOMALY":"285.4495"},{"RCS_SIZE":"LARGE","MEAN_ANOMALY":"253.7491","PERIOD":"95.592","SITE":"AFETR","INCLINATION":"53.0497","OBJECT_TYPE":"PAYLOAD","GP_ID":"225069499","COUNTRY_CODE":"US","REV_AT_EPOCH":"10748","CENTER_NAME":"EARTH","EPHEMERIS_TYPE":"0","OBJECT_ID":"2021-018V","MEAN_MOTION":"15.06402571","EPOCH":"2023-02-10T19:54:39.558528","DECAY_DATE":null,"SEMIMAJOR_AXIS":"6925.341","BSTAR":"0.00022187000000","CLASSIFICATION_TYPE":"U","OBJECT_NAME":"STARLINK-2387","APOAPSIS":"547.970","LAUNCH_DATE":"2021-03-11","PERIAPSIS":"546.442","FILE":"3785071","REF_FRAME":"TEME","NORAD_CAT_ID":"47806","TIME_SYSTEM":"UTC","RA_OF_ASC_NODE":"247.3449","ARG_OF_PERICENTER":"106.3619","TLE_LINE2":"2 47806  53.0497 247.3449 0001103 106.3619 253.7491 15.06402571107481","ELEMENT_SET_NO":"999","MEAN_MOTION_DDOT":"0.0000000000000","MEAN_MOTION_DOT":"0.00003025","MEAN_ELEMENT_THEORY":"SGP4","TLE_LINE1":"1 47806U 21018V   23041.82962452  .00003025  00000-0  22187-3 0  9998","ECCENTRICITY":"0.00011030"},{"ARG_OF_PERICENTER":"76.8344","RA_OF_ASC_NODE":"222.9782","NORAD_CAT_ID":"47807","TIME_SYSTEM":"UTC","REF_FRAME":"TEME","FILE":"3785071","TLE_LINE2":"2 47807  53.0519 222.9782 0000947  76.8344 283.2751 15.06398153107743","MEAN_MOTION_DDOT":"0.0000000000000","ELEMENT_SET_NO":"999","MEAN_ELEMENT_THEORY":"SGP4","TLE_LINE1":"1 47807U 21018W   23041.68633341  .00001517  00000-0  12074-3 0  9993","MEAN_MOTION_DOT":"0.00001517","ECCENTRICITY":"0.00009470","GP_ID":"225069751","OBJECT_TYPE":"PAYLOAD","MEAN_ANOMALY":"283.2751","RCS_SIZE":"LARGE","PERIOD":"95.592","INCLINATION":"53.0519","SITE":"AFETR","CENTER_NAME":"EARTH","REV_AT_EPOCH":"10774","COUNTRY_CODE":"US","MEAN_MOTION":"15.06398153","EPOCH":"2023-02-10T16:28:19.206624","DECAY_DATE":null,"OBJECT_ID":"2021-018W","EPHEMERIS_TYPE":"0","APOAPSIS":"547.875","LAUNCH_DATE":"2021-03-11","PERIAPSIS":"546.563","SEMIMAJOR_AXIS":"6925.354","BSTAR":"0.00012074000000","OBJECT_NAME":"STARLINK-2388","CLASSIFICATION_TYPE":"U"},{"ECCENTRICITY":"0.00008450","MEAN_ELEMENT_THEORY":"SGP4","TLE_LINE1":"1 47808U 21018X   23041.84805761  .00013594  00000-0  92974-3 0  9994","MEAN_MOTION_DOT":"0.00013594","TLE_LINE2":"2 47808  53.0502 247.2563 0000845  62.4472 297.6602 15.06400352107483","MEAN_MOTION_DDOT":"0.0000000000000","ELEMENT_SET_NO":"999","RA_OF_ASC_NODE":"247.2563","ARG_OF_PERICENTER":"62.4472","REF_FRAME":"TEME","FILE":"3785071","NORAD_CAT_ID":"47808","TIME_SYSTEM":"UTC","APOAPSIS":"547.798","LAUNCH_DATE":"2021-03-11","PERIAPSIS":"546.627","BSTAR":"0.00092974000000","SEMIMAJOR_AXIS":"6925.347","OBJECT_NAME":"STARLINK-2389","CLASSIFICATION_TYPE":"U","EPOCH":"2023-02-10T20:21:12.177504","MEAN_MOTION":"15.06400352","DECAY_DATE":null,"EPHEMERIS_TYPE":"0","OBJECT_ID":"2021-018X","COUNTRY_CODE":"US","REV_AT_EPOCH":"10748","CENTER_NAME":"EARTH","OBJECT_TYPE":"PAYLOAD","GP_ID":"225069998","RCS_SIZE":"LARGE","PERIOD":"95.592","MEAN_ANOMALY":"297.6602","INCLINATION":"53.0502","SITE":"AFETR"},{"MEAN_MOTION_DOT":"0.00003852","TLE_LINE1":"1 47809U 21018Y   23041.85217476  .00003852  00000-0  27732-3 0  9992","MEAN_ELEMENT_THEORY":"SGP4","ECCENTRICITY":"0.00011220","TIME_SYSTEM":"UTC","NORAD_CAT_ID":"47809","FILE":"3785071","REF_FRAME":"TEME","ARG_OF_PERICENTER":"90.3706","RA_OF_ASC_NODE":"252.2257","MEAN_MOTION_DDOT":"0.0000000000000","ELEMENT_SET_NO":"999","TLE_LINE2":"2 47809  53.0509 252.2257 0001122  90.3706 269.7411 15.06406845107410","OBJECT_ID":"2021-018Y","EPHEMERIS_TYPE":"0","DECAY_DATE":null,"EPOCH":"2023-02-10T20:27:07.899264","MEAN_MOTION":"15.06406845","CLASSIFICATION_TYPE":"U","OBJECT_NAME":"STARLINK-2390","SEMIMAJOR_AXIS":"6925.328","BSTAR":"0.00027732000000","PERIAPSIS":"546.416","LAUNCH_DATE":"2021-03-11","APOAPSIS":"547.970","SITE":"AFETR","INCLINATION":"53.0509","PERIOD":"95.592","RCS_SIZE":"LARGE","MEAN_ANOMALY":"269.7411","GP_ID":"225069249","OBJECT_TYPE":"PAYLOAD","CENTER_NAME":"EARTH","REV_AT_EPOCH":"10741","COUNTRY_CODE":"US"}];
